[{"OBJECT_NAME":"STARLINK-31335","OBJECT_ID":"2024-031E","EPOCH":"2026-03-09T21:35:06.467424","MEAN_MOTION":15.30192475,"ECCENTRICITY":0.00012727,"INCLINATION":53.1595,"RA_OF_ASC_NODE":293.0019,"ARG_OF_PERICENTER":72.9439,"MEAN_ANOMALY":287.1701,"EPHEMERIS_TYPE":0,"CLASSIFICATION_TYPE":"U","NORAD_CAT_ID":58969,"ELEMENT_SET_NO":999,"REV_AT_EPOCH":11660,"BSTAR":3.8661629e-5,"MEAN_MOTION_DOT":7.86e-6,"MEAN_MOTION_DDOT":0},{"OBJECT_NAME":"GLOBAL-34","OBJECT_ID":"2026-043A","EPOCH":"2026-03-09T11:23:30.999840","MEAN_MOTION":15.31488019,"ECCENTRICITY":0.00068849,"INCLINATION":42.0215,"RA_OF_ASC_NODE":76.7399,"ARG_OF_PERICENTER":289.2632,"MEAN_ANOMALY":70.746,"EPHEMERIS_TYPE":0,"CLASSIFICATION_TYPE":"U","NORAD_CAT_ID":68098,"ELEMENT_SET_NO":999,"REV_AT_EPOCH":53,"BSTAR":0.00045822046,"MEAN_MOTION_DOT":0.00014018,"MEAN_MOTION_DDOT":0}]
